OBJECT_NAME,OBJECT_ID,EPOCH,MEAN_MOTION,ECCENTRICITY,INCLINATION,RA_OF_ASC_NODE,ARG_OF_PERICENTER,MEAN_ANOMALY,EPHEMERIS_TYPE,CLASSIFICATION_TYPE,NORAD_CAT_ID,ELEMENT_SET_NO,REV_AT_EPOCH,BSTAR,MEAN_MOTION_DOT,MEAN_MOTION_DDOT
INTELSAT 23 (IS-23),2012-057A,2026-07-01T04:26:49.907040,1.00268056,.0000204,0.0147,20.7461,188.8621,83.3455,0,U,38867,999,5009,0,-.274E-5,0
FM-6,2013-058A,2026-06-30T23:47:19.305024,1.00271573,.0001859,0.0186,48.2586,133.0710,338.2378,0,U,39360,999,4621,0,-.5E-7,0
INTELSAT 30 (IS-30),2014-062A,2026-06-30T23:53:18.729888,1.00269930,.0001506,0.0206,45.2456,351.3571,145.7258,0,U,40271,999,693,0,-.14E-5,0
DIRECTV 14,2014-078B,2026-06-30T14:20:21.889248,1.00270222,.00004056,0.0112,26.7471,352.9297,14.8397,0,U,40333,999,4217,0,-.115E-5,0
DIRECTV 15,2015-026A,2026-07-01T04:21:38.562048,1.00269245,.0000554,0.0139,56.3522,349.9592,195.4629,0,U,40663,999,4060,0,-.92E-6,0
SKY MEXICO-1,2015-026B,2026-07-01T01:40:40.425312,1.00270759,.0002646,0.0185,25.3430,92.9250,107.2266,0,U,40664,999,4059,0,-.224E-5,0
INTELSAT 34 (IS-34),2015-039A,2026-07-01T03:29:56.733792,1.00270422,.0000551,0.0112,355.7970,41.1105,239.2861,0,U,40874,999,3977,0,-.275E-5,0
INTELSAT 31 (IS-31),2016-035A,2026-07-01T04:55:38.682048,1.00270226,.0000646,0.0193,279.4145,4.6347,334.0666,0,U,41581,999,3682,0,-.14E-5,0
INTELSAT 36 (IS-36),2016-053A,2026-07-01T04:05:23.335008,1.00270586,.00021,0.0104,16.3738,332.8834,59.8194,0,U,41747,999,3609,0,-.14E-6,0
INTELSAT 32E (IS-32E),2017-007B,2026-06-29T12:12:28.637856,1.00268307,.0000889,0.0243,13.6582,344.8527,59.0307,0,U,41945,999,3434,0,0,0
INTELSAT 35E (IS-35E),2017-041A,2026-07-01T04:52:30.590976,1.00267260,.000232,0.0220,26.9335,72.9327,218.0168,0,U,42818,999,3295,0,0,0
INTELSAT 37E (IS-37E),2017-059A,2026-07-01T03:40:40.704096,1.00268237,.0002891,0.0248,35.2849,68.6355,212.4527,0,U,42950,999,3220,0,0,0
AZERSPACE 2 (IS-38),2018-074A,2026-07-01T03:58:38.982144,1.00270227,.0001646,0.0254,32.6258,71.9925,279.3754,0,U,43632,999,2858,0,0,0
HORIZONS-3E,2018-074B,2026-06-30T18:18:07.252416,1.00273598,.0000405,0.0036,112.8106,189.6413,59.9192,0,U,43633,999,2847,0,-.19E-6,0
AT&T T-16,2019-034A,2026-06-30T23:51:41.387328,1.00269106,.0000363,0.0175,62.7471,265.9858,207.3721,0,U,44333,999,2577,0,-.104E-5,0
INTELSAT 39 (IS-39),2019-049B,2026-07-01T04:03:31.015008,1.00272073,.0000841,0.0222,18.7129,330.8069,52.5438,0,U,44476,999,2526,0,0,0
GALAXY 30 (G-30),2020-056C,2026-07-01T05:11:38.827104,1.00272876,.0002242,0.0170,37.0651,61.1179,133.9929,0,U,46114,999,2143,0,.47E-6,0
GALAXY 33 (G-33),2022-128A,2026-07-01T05:11:38.827104,1.00272962,.0002056,0.0151,19.7775,78.2991,126.1142,0,U,54026,999,1388,0,.89E-6,0
GALAXY 34 (G-34),2022-128B,2026-07-01T05:11:38.827104,1.00267782,.0001944,0.0277,22.7263,87.1019,118.3626,0,U,54027,999,1405,0,0,0
GALAXY 31 (G-31),2022-153A,2026-07-01T01:28:42.956256,1.00271917,.0001603,0.0160,57.1188,39.5934,83.5776,0,U,54243,999,727,0,.24E-6,0
GALAXY 32 (G-32),2022-153B,2026-06-30T23:55:11.050752,1.00272750,.000206,0.0073,17.7858,32.4715,136.5967,0,U,54244,999,1328,0,-.164E-5,0
GALAXY 35 (G-35),2022-170A,2026-07-01T03:19:13.440864,1.00270742,.0002373,0.0245,52.6840,56.0281,127.1799,0,U,54741,999,1303,0,0,0
GALAXY 36 (G-36),2022-170B,2026-07-01T04:11:10.707072,1.00270762,.0002869,0.0081,311.9254,141.1932,159.9019,0,U,54742,999,1291,0,-.175E-5,0
GALAXY 37 (G-37),2023-112A,2026-07-01T05:11:38.827104,1.00271324,.0002133,0.0168,335.6775,124.6912,129.8153,0,U,57493,999,1068,0,.59E-6,0
