INTELSAT 23 (IS-23)     
1 38867U 12057A   26182.18529985 -.00000274  00000+0  00000+0 0  9995
2 38867   0.0147  20.7461 0000204 188.8621  83.3455  1.00268056 50096
FM-6                    
1 39360U 13058A   26181.99119566 -.00000005  00000+0  00000+0 0  9996
2 39360   0.0186  48.2586 0001859 133.0710 338.2378  1.00271573 46212
INTELSAT 30 (IS-30)     
1 40271U 14062A   26181.99535567 -.00000140  00000+0  00000+0 0  9998
2 40271   0.0206  45.2456 0001506 351.3571 145.7258  1.00269930  6937
DIRECTV 14              
1 40333U 14078B   26181.59747557 -.00000115  00000+0  00000+0 0  9996
2 40333   0.0112  26.7471 0000405 352.9297  14.8397  1.00270222 42174
DIRECTV 15              
1 40663U 15026A   26182.18169632 -.00000092  00000+0  00000+0 0  9998
2 40663   0.0139  56.3522 0000554 349.9592 195.4629  1.00269245 40607
SKY MEXICO-1            
1 40664U 15026B   26182.06991233 -.00000224  00000+0  00000+0 0  9993
2 40664   0.0185  25.3430 0002646  92.9250 107.2266  1.00270759 40591
INTELSAT 34 (IS-34)     
1 40874U 15039A   26182.14579553 -.00000275  00000+0  00000+0 0  9992
2 40874   0.0112 355.7970 0000551  41.1105 239.2861  1.00270422 39773
INTELSAT 31 (IS-31)     
1 41581U 16035A   26182.20530882 -.00000140  00000+0  00000+0 0  9995
2 41581   0.0193 279.4145 0000646   4.6347 334.0666  1.00270226 36823
INTELSAT 36 (IS-36)     
1 41747U 16053A   26182.17040897 -.00000014  00000+0  00000+0 0  9997
2 41747   0.0104  16.3738 0002100 332.8834  59.8194  1.00270586 36095
INTELSAT 32E (IS-32E)   
1 41945U 17007B   26180.50866479  .00000000  00000+0  00000+0 0  9998
2 41945   0.0243  13.6582 0000889 344.8527  59.0307  1.00268307 34342
INTELSAT 35E (IS-35E)   
1 42818U 17041A   26182.20313184  .00000000  00000+0  00000+0 0  9995
2 42818   0.0220  26.9335 0002320  72.9327 218.0168  1.00267260 32953
INTELSAT 37E (IS-37E)   
1 42950U 17059A   26182.15324889  .00000000  00000+0  00000+0 0  9999
2 42950   0.0248  35.2849 0002891  68.6355 212.4527  1.00268237 32209
AZERSPACE 2 (IS-38)     
1 43632U 18074A   26182.16572896  .00000000  00000+0  00000+0 0  9999
2 43632   0.0254  32.6258 0001646  71.9925 279.3754  1.00270227 28588
HORIZONS-3E             
1 43633U 18074B   26181.76258394 -.00000019  00000+0  00000+0 0  9990
2 43633   0.0036 112.8106 0000405 189.6413  59.9192  1.00273598 28471
AT&T T-16               
1 44333U 19034A   26181.99422902 -.00000104  00000+0  00000+0 0  9993
2 44333   0.0175  62.7471 0000363 265.9858 207.3721  1.00269106 25772
INTELSAT 39 (IS-39)     
1 44476U 19049B   26182.16910897  .00000000  00000+0  00000+0 0  9996
2 44476   0.0222  18.7129 0000841 330.8069  52.5438  1.00272073 25267
GALAXY 30 (G-30)        
1 46114U 20056C   26182.21642161  .00000047  00000+0  00000+0 0  9990
2 46114   0.0170  37.0651 0002242  61.1179 133.9929  1.00272876 21432
GALAXY 33 (G-33)        
1 54026U 22128A   26182.21642161  .00000089  00000+0  00000+0 0  9999
2 54026   0.0151  19.7775 0002056  78.2991 126.1142  1.00272962 13887
GALAXY 34 (G-34)        
1 54027U 22128B   26182.21642161  .00000000  00000+0  00000+0 0  9993
2 54027   0.0277  22.7263 0001944  87.1019 118.3626  1.00267782 14052
GALAXY 31 (G-31)        
1 54243U 22153A   26182.06160829  .00000024  00000+0  00000+0 0  9996
2 54243   0.0160  57.1188 0001603  39.5934  83.5776  1.00271917  7270
GALAXY 32 (G-32)        
1 54244U 22153B   26181.99665568 -.00000164  00000+0  00000+0 0  9994
2 54244   0.0073  17.7858 0002060  32.4715 136.5967  1.00272750 13282
GALAXY 35 (G-35)        
1 54741U 22170A   26182.13835001  .00000000  00000+0  00000+0 0  9991
2 54741   0.0245  52.6840 0002373  56.0281 127.1799  1.00270742 13032
GALAXY 36 (G-36)        
1 54742U 22170B   26182.17442948 -.00000175  00000+0  00000+0 0  9994
2 54742   0.0081 311.9254 0002869 141.1932 159.9019  1.00270762 12916
GALAXY 37 (G-37)        
1 57493U 23112A   26182.21642161  .00000059  00000+0  00000+0 0  9991
2 57493   0.0168 335.6775 0002133 124.6912 129.8153  1.00271324 10689
